Name,Url,Telephone,Longitude,Latitude,AddressRegion,AddressLocality,AddressCountry,Tags
Dun na Rí Forest Park,http://www.coillte.ie/site/dun-a-ri-forest-park/,353494331942,-6.79266149999999,53.9189778,Cavan,Kingscourt,Ireland,"Walking,Forest Park,Park and Forest Walk,National Park,National and Forest Park,Public Park,Nature and Wildlife"
Newcastle Woods,https://www.longford.ie/en/visit/trails/newcastle-woodland-trail/,353433343509,-7.7261067,53.5621238,Longford,,Ireland,"Walking,Natural Landscape"
Rinn Duin Castle Loop,https://www.sportireland.ie/outdoors/walking/trails/rinn-duin-castle-loop?county=53&grade=402&length=All#list,+353(0)906630252,-8.00432573022647,53.544196661934,Roscommon,,Republic of Ireland,"Walking,Castle,Historic Houses and Castle,Ruins"
Knock Museum,https://www.knockshrine.ie/key-places-to-visit/knock-museum/,353949388100,-8.91715329999999,53.7900043,Mayo,Knock,Ireland,"Church Abbey,Monastery,Churches,Abbeys and Monastery,Museums and Attraction,Cafe,Food and Drink"
Michael J Quill Centre,http://www.historic-ireland.com/places/778.html,353646685511,-9.46143,51.902656,Kerry,Kilgarvan,Republic of Ireland,Museums and Attraction
West Cork Music,https://www.westcorkmusic.ie/,3532752788,-9.4489112,51.6804291,Cork,Bantry,Ireland,"Learning,Literary Ireland,Venue,Music"
St Brigid’s Cathedral & Round Tower,http://www.stbrigidscathedral.com/,,-6.91137099999999,53.1579272,Kildare,,Ireland,"Historic Houses and Castle,Church Abbey,Monastery,Churches,Abbeys and Monastery"
Croppies Grave,http://www.igp-web.com/Carlow/croppies_graves.htm,,-6.9391607,52.8389539,Carlow,,Ireland,Public Sculpture
Newtown Castle,https://www.newtowncastle.com/history,353657077200,-9.16938609999999,53.1033781999999,Clare,Newtown,Ireland,"Walking,Castle,Historic Houses and Castle"
Famine Warhouse 1848,http://heritageireland.ie/visit/places-to-visit/famine-warhouse-1848/,353879089972,-7.52220989999999,52.6193986,Tipperary,Ballingarry,Ireland,"Historic Houses and Castle,Museums and Attraction"
The Lartigue Monorailway,http://www.lartiguemonorail.com,3536824393,-9.490492,52.44965,Kerry,Listowel,Republic of Ireland,"Transport,Activity Operator,Museums and Attraction,Tour,Coach,Road"
Roscrea Castle and Damer House,https://heritageireland.ie/places-to-visit/roscrea-heritage-centre-roscrea-castle-and-damer-house/,35350521850,-7.79815239999999,52.9551159,Tipperary,Roscrea,Ireland,"Photography,Learning,Historic Houses and Castle,Castle,Gardens,Garden,Museums and Attraction,Tour"
Dunguaire Castle,https://www.dunguairecastle.com/,35361711222,-8.9261281,53.1422901,Galway,,Ireland,"Food and Drink,Restaurant,Historic Houses and Castle,Castle,Activity Operator,Food Shops,Shopping,Tour"
The Wexford Slobs and Wildfowl Reserve,https://www.wexfordwildfowlreserve.ie,353761002660,-6.4200302,52.3570279,Wexford,,Ireland,"Bird Watching,Nature and Wildlife,Learning,Photography,Forest Park,Park and Forest Walk,Walking,National Park,National and Forest Park,Natural Landscape"
Ballymore Historic Features,http://www.ballymorehistoricfeatures.com,353868246921,-6.374547,52.598346,Wexford,Ballymore,Republic of Ireland,"Museums and Attraction,Tour"
Father Murphy Centre,https://www.facebook.com/Fr-Murphy-Centre-Boolavogue-315611758499163,353539366898,-6.41078079999999,52.5485902,Wexford,Boolavogue,Ireland,Museums and Attraction
Baltinglass Abbey,http://visitwicklow.ie/attractions/baltinglass-abbey,,-6.7102325,52.9439747,Wicklow,Baltinglass,Ireland,"Historic Houses and Castle,Church Abbey,Monastery,Churches,Abbeys and Monastery,Ruins"
Christ Church Castlebar,http://www.tuam.anglican.org/aughaval-westport/castlebar-christ-church,,-9.299977,53.854419,Mayo,Castlebar,Republic of Ireland,"Historic Houses and Castle,Church Abbey,Monastery,Churches,Abbeys and Monastery"
Cape Clear Heritage Centre,http://www.capeclearisland.ie/heritageCentre,3532839119,-9.4951214903421,51.4330082748222,Cork,Cape Clear Island,Republic of Ireland,Museums and Attraction
Sligo County Library,https://sligolibrary.ie/,353719111850,-8.47265099999999,54.2727356,Sligo,,Ireland,"Learning,Tracing Your Ancestors,Literary Ireland,Activity Operator"
South Tipperary Genealogy Centre,https://www.bruboru.ie/about-us/genealogy/,3636261122,-7.8884088,52.5212005,Tipperary,Cashel,Ireland,"Tracing Your Ancestors,Museums and Attraction"
Díseart,http://www.diseart.ie,353669152476,-10.270519,52.1418478999999,Kerry,Dingle,Ireland,"Learning,Church Abbey,Monastery,Churches,Abbeys and Monastery,Gardens,Garden"
Ballyhugh Art and Culture Centre Painting,http://homepage.eircom.net/~ballyhugh/art.htm,353499526044,-7.5839647358398,54.1160737914336,Cavan,Ballyconnell,Republic of Ireland,"Craft,Shopping,Learning,Art Gallery,Activity Operator"
Dún Na Séad Castle,https://www.baltimorecastle.ie/,3532820735,-9.3731024,51.4835712999999,Cork,Baltimore,Ireland,"Historic Houses and Castle,Castle"
Carrickabraghey Castle,https://www.govisitinishowen.com/directory/carrickabraghy-castle-2,353749363451,-7.3727509,55.3163658,Donegal,,Ireland,"Historic Houses and Castle,Castle,Ruins"
Eighty Two Merrion Square,,+353(0)16761173,-6.251328,53.339313,Dublin,Dublin City Centre,Republic of Ireland,"Castle,Historic Houses and Castle"
Teach Synge - John Millington Synge's Cottage &  Museum,,3539973036,-9.5923818,53.0844699,Galway,,Ireland,Museums and Attraction
Tarbert House,http://www.kerrytourism.tarbert.ie/things-to-do/visit-tarbert-house,3536836198,-9.3689933,52.5796639,Kerry,Tarbert,Ireland,Historic Houses and Castle
Harristown House,https://www.harristownhouse.ie,35345483614,-6.6914209,53.1317192,Kildare,,Ireland,"Historic Houses and Castle,Tour"
Maynooth Ecclesiastical Museum,http://museum.maynoothcollege.ie,353879152003,-6.5981017,53.3786105999999,Kildare,Maynooth,Ireland,Museums and Attraction
Edmund Rice Heritage Centre,http://edmundrice.net/edmund-rice/heritage-centres#westcourt-callan,353567725993,-7.398617,52.5525655999999,Kilkenny,,Ireland,"Historic Houses and Castle,Museums and Attraction"
Trinitarian Monastery,https://www.adareparish.ie/our-parish/virtual-tour-2/,35361396172,-8.7890832,52.564815,Limerick,Adare,Ireland,"Historic Houses and Castle,Church Abbey,Monastery,Churches,Abbeys and Monastery"
Magdalene Tower,http://www.drogheda.ie,+353(0)419837070,-6.351512,53.718285,Louth,Drogheda,Republic of Ireland,"Photography,Learning,Walking,Historic Houses and Castle,Church Abbey,Monastery,Churches,Abbeys and Monastery,Ruins"
Partry House,http://www.museumsofmayo.com/partry.htm,353949543004,-9.2625359,53.6685245,Mayo,Partry,Ireland,"Historic Houses and Castle,Tour"
Rockfleet Castle,https://www.destinationwestport.com/directory/rockfleet-castle,3539825711,-9.6270894,53.8960284,Mayo,,Ireland,"Castle,Historic Houses and Castle"
Dardistown Castle,http://www.dardistowncastle.ie,353419829239,-6.3136965,53.6645112,Meath,Julianstown,Ireland,"Photography,Learning,Historic Houses and Castle,Castle,Tour"
Redwood Castle,http://www.redwoodcastleireland.com,353949021375,-8.10585,53.138996,Tipperary,Lorrha,Ireland,"Photography,Learning,Historic Houses and Castle,Castle,Tour"
The Barony Of Erris Birdwatching,https://www.mayo-ireland.ie/en/towns-villages/bangor/bangor-activities-birdwatching.html,+353(0)9782292,-9.99073301891792,54.2237204010126,Mayo,,Republic of Ireland,"Bird Watching,Nature and Wildlife,Natural Landscape"
Millstreet Museum,http://www.millstreet.ie/blog/tag/millstreet-museum,3532970844,-9.067209,52.059733,Cork,Millstreet,Republic of Ireland,"Learning,Museums and Attraction"
Limerick City Museum,https://www.limerick.ie/limerick-museum,35361557740,-8.6287673,52.6639172,Limerick,,Ireland,"Learning,Museums and Attraction,Tour"
Waterloo Round Tower,http://www.irishstones.org/place.aspx?p=1232,,-8.573712,51.954691,Cork,Blarney,Republic of Ireland,Historic Houses and Castle
Saint Marys Church Of Ireland,https://www.ireland.anglican.org/find-a-church/parish/15860/carlow-st-mary-carlow,353599132565,-6.9331429,52.8369396999999,Carlow,,Ireland,"Church Abbey,Monastery,Churches,Abbeys and Monastery"
Church of the Resurrection Blarney,https://cupcork.ie/,353214877260,-8.56858759999999,51.9336175,Cork,Blarney,Ireland,"Historic Houses and Castle,Church Abbey,Monastery,Churches,Abbeys and Monastery"
Saint Colman's Cathedral,https://cobhcathedralparish.ie,353214813222,-8.2936865,51.8514618,Cork,Kilgarvan,Ireland,"Historic Houses and Castle,Church Abbey,Monastery,Churches,Abbeys and Monastery"
St. Luke's Church,http://www.liveatstlukes.com/,,-8.457078,51.904255,Cork,Cork City,Republic of Ireland,"Church Abbey,Monastery,Churches,Abbeys and Monastery,Venue,Music"
Augustinian Abbey Adare,http://www.ireland.anglican.org,35361396227,-8.784585,52.567928,Limerick,Adare,Republic of Ireland,"Historic Houses and Castle,Church Abbey,Monastery,Churches,Abbeys and Monastery"
Vincent Hyland Art Gallery,https://www.vincenthylandartist.com/,353831992560,-10.106873,51.754406,Kerry,Caherdaniel,Ireland,"Craft,Shopping,Photography,Learning,Art Gallery"
"Cathedral of the Most Holy Trinity, Waterford",http://www.waterford-cathedral.com/,35351875166,-7.11117209999999,52.2615066,Waterford,,Ireland,"Historic Houses and Castle,Church Abbey,Monastery,Churches,Abbeys and Monastery,Venue,Music"
Tech Amergin,http://www.techamergin.com,353669478956,-10.172331,51.8295849999999,Kerry,Waterville,Ireland,"Craft,Shopping,Learning,Movies,Cinema,Venue,Art Gallery"
Saint Marys Cathedral,https://www.stmaryscathedral.ie/,353567771253,-7.2570566,52.6523483,Kilkenny,,Ireland,"Historic Houses and Castle,Church Abbey,Monastery,Churches,Abbeys and Monastery,Food Shops,Shopping"
Stradbally Medieval Church,,3535841741,-7.46079348745372,52.130433870236,Waterford,Stradbally,Ireland,"Church Abbey,Monastery,Churches,Abbeys and Monastery"
Firkin Crane Dance Centre,https://www.firkincrane.ie/ ,353214507487,-8.4763208,51.9026986999999,Cork,,Ireland,"Learning,Historic Houses and Castle"
Cork City Library,http://www.corkcitylibraries.ie,353214924900,-8.475332,51.896731,Cork,Cork City,Republic of Ireland,"Learning,Literary Ireland"
St. Finbarr's South Church,https://www.facebook.com/pages/category/Catholic-Church/St-Finbarrs-South-Church-577874335698942/,353851471147,-8.4714612,51.8942511,Cork,Cork City,Ireland,"Tracing Your Ancestors,Historic Houses and Castle,Church Abbey,Monastery,Churches,Abbeys and Monastery"
St Joseph's Redemptorist Church,https://www.redemptoristsdundalk.ie,353429334042,-6.3895579,54.0042289,Louth,Dundalk,Ireland,"Photography,Learning,Historic Houses and Castle,Church Abbey,Monastery,Churches,Abbeys and Monastery"
Clogher Heritage Complex,http://www.museumsofmayo.com/clogher-heritage-centre/clogher-heritage-centre.html,353949030687,-9.2465285,53.7633927,Mayo,,Ireland,"Walking,Museums and Attraction,Activity Operator,Tour"
Working Artist Studios,https://www.workingartiststudios.com/,353861628471,-9.4614566,51.5627244999999,Cork,Ballydehob,Ireland,"Craft,Shopping,Learning,Art Gallery"
Herb Garden at Kilgraney House,http://kilgraneyhouse.com/,353599775283,-6.95819999999999,52.6538339,Carlow,,Ireland,"Gardens,Garden,Food Shops,Shopping"
Pure Skill,https://www.pureskill.ie,35391515510,-9.10056949999999,53.2711069999999,Galway,,Ireland,"Gaa,Activity Operator"
St Iberius Church,,,-6.46214239999999,52.3391990999999,Wexford,,Ireland,"Church Abbey,Monastery,Churches,Abbeys and Monastery"
Lettermullen & Garumna Heritage Centre,https://www.xn--cuigal-eva.ie/about,35391551744,-9.73240906606963,53.2432360359837,Galway,Lettermullen Island,Republic of Ireland,"Tracing Your Ancestors,Museums and Attraction"
Marlfield House & Gardens,https://www.marlfieldhouse.com/,353539421124,-6.27521099999999,52.668747,Wexford,Gorey,Ireland,"Walking,Gardens,Garden"
Nowlan Park  Gaelic Stadium,http://www.kilkennygaa.ie,,-7.238554,52.656856,Kilkenny,Kilkenny City,Republic of Ireland,"Gaa,Activity Operator,Stadium,Sports Venue,Venue,Sports Venues"
Oranmore Castle,http://www.oranmorecastle.com,353866003160,-8.9346103,53.2682869,Galway,Oranmore,Ireland,"Castle,Historic Houses and Castle,Venue,Music,Tour"
The Dunamaise Arts Centre,https://www.dunamaise.ie/,353578663355,-7.29998339999999,53.0343718,Laois,Portlaoise,Ireland,"Craft,Shopping,Movies,Cinema,Venue,Art Gallery,Comedy,Music"
Hennigan's Heritage Centre,http://hennigansheritage.com/,353872491402,-8.98737349999999,53.9742533999999,Mayo,,Ireland,"Museums and Attraction,Visitor Farm,Tour"
Blarney House and Gardens,https://blarneycastle.ie/,353214385252,-8.5707144,51.9291159,Cork,Blarney,Ireland,"Historic Houses and Castle,Gardens,Garden,Cafe,Food and Drink,Tour"
St Aidan's Cathedral,https://www.staidanscathedral.ie/,353539235777,-6.5709015,52.5028662,Wexford,Enniscorthy,Ireland,"Historic Houses and Castle,Church Abbey,Monastery,Churches,Abbeys and Monastery"
Great Sugar Loaf Mountain,http://www.visitwicklow.ie,,-6.151,53.152,Wicklow,Kilmacanogue,Ireland,"Walking,Natural Landscape"
The Back Lane Pop Up Gallery,http://thebacklanegallery.blogspot.com/,353873212948,-9.5062927,52.0589956,Kerry,Killarney,Ireland,"Craft,Shopping,Art Gallery"
Brideweir Hous,https://www.brideweir.ie,3532536386,-8.1550475,52.0869699,Cork,Conna,Ireland,"Castle,Historic Houses and Castle"
Collon House,http://www.collonhouse.com/,353872355645,-6.48649999999999,53.778286,Louth,Collon,Ireland,"Historic Houses and Castle,Gardens,Garden,Tour"
Hall of the Red Earl,https://galwaycivictrust.ie/,35391564946,-9.05368079999999,53.2710074999999,Galway,,Ireland,Museums and Attraction
Ireland Writing Retreat Donegal,https://www.irelandwritingretreat.com,353833356243,-8.23285486695841,55.0514962862241,Donegal,Gweedore,Ireland,"Learning,Activity Operator,Literary Ireland"
North Kerry Museum,http://www.northkerrymuseum.com,353877426231,-9.6553707,52.4708634,Kerry,Ballyduff,Ireland,"Museums and Attraction,Food Shops,Shopping"
Claregalway Museum and Forge,https://facebook.com/ClaregalwayHistoricalSociety,353867778217,-8.927952,53.359957,Galway,Claregalway,Ireland,Museums and Attraction
Top of the Rock Viewing Platform Trail,https://facebook.com/rockviewingplatform,+353(0)872989250,-10.2525746836364,51.9603862137861,Kerry,Cahersiveen,Ireland,"Photography,Learning,Walking,Natural Landscape"
Haggardstown Old Church and Graveyard,,,-6.3780595,53.9662155,Louth,,Ireland,"Historic Houses and Castle,Church Abbey,Monastery,Churches,Abbeys and Monastery,Ruins"
Blackrock Wetlands,https://visitblackrock.ie/,353872077193,-6.3717605,53.9577093,Louth,,Ireland,"Bird Watching,Nature and Wildlife,Walking,Natural Landscape"
IUNVA Post 19,https://iunvapost19.com/,353864160532,-7.7318534923462,54.9574038713154,Donegal,Letterkenny,Ireland,Public Sculpture
Passage West Maritime Museum CLG,http://passagemuseum.ie/index.html,353871363588,-8.336456,51.872362,Cork,Passage West,Ireland,Museums and Attraction
Cashel Folk Village Museum,https://www.cashelfolkvillage.com,3536263601,-7.8882142,52.5174899,Tipperary,Cashel,Ireland,"Learning,Museums and Attraction"
Donaghmore Famine Workhouse Museum,http://donaghmoremuseum.ie,353868296685,-7.61259069999999,52.8770211,Laois,Donaghmore,Ireland,"Agriculture,Nature and Wildlife,Photography,Learning,Historic Houses and Castle,Museums and Attraction,Tour"
Coleman Irish Music Centre - Ceoláras Coleman,https://www.colemanirishmusic.com/,353719182599,-8.5230249,53.9962461999999,Sligo,,Ireland,"Learning,Museums and Attraction,Shopping,Traditionally Irish,Venue,Music"
County Museum Dundalk,https://www.louthcoco.ie/en/contact/location_maps/dundalk/dundalk_museum.html,353429327056,-6.3971254,54.0046228,Louth,Dundalk,Ireland,"Historic Houses and Castle,Museums and Attraction,Venue,Music,Tour"
Ionad Cois Locha,http://dunleweycentre.com/,353749531699,-8.14764119999999,55.025326,Donegal,Letterkenny,Ireland,"Craft,Shopping,Cruising,Kayaking,Activity Operator,Walking,Museums and Attraction,Cafe,Food and Drink,Boat,Tour"
The Yeats Encounter,https://facebook.com/The-Yeats-Encounter-618433715302579,353871372122,-8.47722771848191,54.2738563268055,Sligo,Sligo Town,Republic of Ireland,"Activity Operator,Literary Ireland"
Sligo Folk Park,https://sligofolkpark.com/,353719165001,-8.39881869999999,54.1294653,Sligo,Riverstown,Ireland,"Museums and Attraction,Cafe,Food and Drink"
Shackleton Museum Athy,https://shackletonmuseum.com/,353598633075,-6.9832541,52.9916784,Kildare,Athy,Ireland,"Museums and Attraction,Tour"
Doe Castle,https://heritageireland.ie/places-to-visit/doe-castle/,353872937383,-7.8645123,55.1352927,Donegal,,Ireland,"Castle,Historic Houses and Castle"
St George's Heritage & Visitor Centre,https://stgeorgesheritagevisitorcentre.ie/,353719621757,-8.0948333,53.9468895999999,Leitrim,,Ireland,"Learning,Museums and Attraction,Tour"
The Irish Fly Fishing and Game Museum,http://laois.ie/departments/heritage/laois-heritage-trail/irish-fly-fishing-and-game-shooting-museum,353578736112,-7.34727699999999,52.8342124,Laois,Attanagh,Ireland,"Fishing,Angling,Museums and Attraction,Tour"
Costello Chapel,http://www.carrickonshannonparish.com/costello.htm,353719620170,-8.0953457,53.9453089999999,Leitrim,,Ireland,"Church Abbey,Monastery,Churches,Abbeys and Monastery"
Nano Nagle Birthplace,http://www.nanonaglebirthplace.ie/,3532226411,-8.52272999999999,52.1512699999999,Cork,,Ireland,"Museums and Attraction,Activity Operator,Tour"
Dartfield Country Estate and Horse Museum,http://www.dartfield.com,35391843968,-8.479863,53.219883,Galway,Kilreekill,Ireland,"Agriculture,Nature and Wildlife,Horse Riding,Equestrian,Learning,Museums and Attraction,Cafe,Food and Drink,Activity Operator,Food Shops,Shopping"
The Shannon Pot,http://www.marblearchcavesgeopark.com/attraction/shannon-port/,353719853941,-7.919,54.23475,Cavan,,Ireland,"River,Discovery Point"
Castlerea Railway Museum,https://www.hellskitchenmuseum.com/,353872308152,-8.494766,53.769823,Roscommon,,Ireland,Museums and Attraction
Clew Bay Heritage Centre,https://www.westportheritage.com/,3539826852,-9.55461,53.801673,Mayo,Rosbeg,Ireland,"Walking,Tracing Your Ancestors,Museums and Attraction,Activity Operator,Tour"
The Masonic Centre,http://freemasonsnorthmunster.com,35361313399,-8.6256075,52.6704984,Limerick,,Ireland,"Learning,Historic Houses and Castle,Museums and Attraction,Tour"
Nenagh Heritage Centre & North Tipperary Genealogy,https://www.facebook.com/Nenaghheritage/,3536733850,-8.2007414,52.8656669,Tipperary,Nenagh,Ireland,"Tracing Your Ancestors,Historic Houses and Castle,Museums and Attraction,Tour"
Kiltyclogher Heritage Centre and Seán MacDiarmada’s Cottage,http://kiltyclogherheritagecentre.com,353719854865,-8.03790249999999,54.3562595,Leitrim,Kiltyclogher,Ireland,"Museums and Attraction,Tour"
Inishmurray Island,https://inishmurray.com/,,-8.66140731884763,54.4324497652454,Sligo,Inishmurray,Republic of Ireland,"Island,Offshore Island"
Bishop's Quarter ,,,-9.127942,53.1291281,Clare,Ballyvaughan,Ireland,"Swimming,Swimming Pools and Water Park,Venue,Beach,Natural Landscape"
Lough Derg Place of Pilgrimage,https://www.loughderg.org/,353719861518,-7.87127813389588,54.6089850115485,Donegal,Pettigo,Republic of Ireland,"Transport,Walking,Church Abbey,Monastery,Churches,Abbeys and Monastery,Island,Offshore Island,Coach,Road"
Kildemock Jumping Church,http://www.louthholidays.com,353429352111,-6.518018,53.831371,Louth,Ardee,Republic of Ireland,"Church Abbey,Monastery,Churches,Abbeys and Monastery,Ruins,Historic Houses and Castle"
Irish Military War Museum,https://irishmilitarywarmuseum.com/,353419819501,-6.47071249999999,53.7642649999999,Meath,Collon,Ireland,"Learning,Museums and Attraction,Cafe,Food and Drink,Activity Operator,Tour"
Christ Church - Glandore,https://www.facebook.com/christchurchglandore,353238848166,-9.1237442,51.5656831,Cork,,Ireland,"Historic Houses and Castle,Church Abbey,Monastery,Churches,Abbeys and Monastery"
Kilkenny City Library,https://www.kilkennylibrary.ie,+353(0)567794174,-7.250184,52.653473,Kilkenny,Kilkenny City,Republic of Ireland,"Learning,Literary Ireland"
Kilkenny Library Local Studies,http://kilkennylibrary.ie/eng/our_services/local_studies,353567794160,-7.24659719999999,52.655429,Kilkenny,,Ireland,"Learning,Tracing Your Ancestors,Literary Ireland"
Kerry Writers' Museum,https://www.kerrywritersmuseum.com/,3536822212,-9.4864602,52.4446144,Kerry,Listowel,Ireland,"Learning,Museums and Attraction,Literary Ireland,Cafe,Food and Drink"
Slieve Bloom Mountains,,,-7.5672222,53.0933333,Laois,,Ireland,"Walking,Natural Landscape"
The Irish Museum of Time,https://www.waterfordtreasures.com/irish-museum-of-time,353761102501,-7.1068373,52.2606433,Waterford,,Ireland,"Craft,Shopping,Museums and Attraction,Tour"
Irish Silver Museum,https://www.waterfordtreasures.com/irish-silver-museum,353761102501,-7.1070386,52.2601005999999,Waterford,Waterford City,Ireland,"Craft,Shopping,Historic Houses and Castle,Museums and Attraction"
Deserted Village Guided Tour,https://achilltourism.com/deserted-village-guided-tours/,3539820400,-10.0767149,53.996425,Mayo,,Republic of Ireland,"Activity Operator,Ruins,Historic Houses and Castle,Tour,Walking"
Kiltartan Gregory Museum,https://www.kiltartangregorymuseum.org/,353868252164,-8.81543499999999,53.0994010999999,Galway,Cross,Ireland,"Historic Houses and Castle,Museums and Attraction,Literary Ireland,Tour"
Sligo Famine Family Memorial,,,-8.47677159999999,54.2738410999999,Sligo,,Ireland,Public Sculpture
WB Yeats Statue,,,-8.47384559999999,54.2725362,Sligo,,Ireland,"Photography,Learning,Public Sculpture,Literary Ireland"
Gleniff Horseshoe,https://sligowalks.ie/walks/the-gleniff-horse-shoe-benwisken-trail/,,-8.41511929999999,54.3708664,Sligo,,Ireland,"Cycling,Walking,Natural Landscape"
Charlie Chaplin Statue,,,-10.172121,51.8263396999999,Kerry,Waterville,Republic of Ireland,Public Sculpture
Viking Long Boat and Dragon Slayer Sword,,,-7.1053454,52.2605403,Waterford,,Ireland,Public Sculpture
The National Monument,,,-8.4745872,51.8960944,Cork,,Ireland,"Tracing Your Ancestors,Public Sculpture"
Statue of King Puck Killorglin,,,-9.78185769999999,52.1063939999999,Kerry,,Ireland,Public Sculpture
The Monk's Fishing House,,,-9.2889015,53.5399542,Mayo,Cong,Ireland,"Ruins,Historic Houses and Castle"
 Newport Railway Viaduct,,,-9.5449174,53.8843415,Mayo,Newport,Ireland,Historic Houses and Castle
Mulranny Saltmarsh,,,-9.7843193,53.8975187,Mayo,,Ireland,"Bird Watching,Nature and Wildlife,Natural Landscape"
Quincentennial  Fountain ,,,-9.04941819999999,53.2747095,Galway,Eyre Square,Republic of Ireland,"Historic Houses and Castle,Public Sculpture"
Galway City's Medieval Walls ,https://www.galwaycitymuseum.ie/medieval-galway/?locale=en,,-9.0499506,53.2731132,Galway,Eyre Square,Republic of Ireland,"Historic Houses and Castle,Ruins"
Knockboy and Priest's Leap,,,-9.47126589999999,51.7935396,Cork,,Ireland,Natural Landscape
Statue of John B. Keane,,,-9.48590239999999,52.4459208,Kerry,Listowel,Ireland,Public Sculpture
The Mission Sculpture,,,-9.5135087,52.0570463,Kerry,Killarney,Republic of Ireland,Public Sculpture
Dunloe Ogham Stones,,,-9.63480199999999,52.0603969999999,Kerry,Tralee,Ireland,Public Sculpture
"Árthach Dána, Amergin Memorial Sculpture & Sundial",,,-10.172165,51.8256197,Kerry,Waterville,Ireland,"Historic Houses and Castle,Public Sculpture"
Mick O'Dwyer Statue,,,-10.1721644,51.8267389,Kerry,Waterville,Ireland,"Gaa,Public Sculpture"
Monsignor Hugh O'Flaherty Memorial Statue,,,-9.5110669,52.0572116,Kerry,Killarney,Ireland,Public Sculpture
Johnny O'Leary Memorial Statue,,,-9.5071997,52.0573361,Kerry,Killarney,Ireland,Public Sculpture
Charles De Gaulle Memorial,,,-9.9018436,51.8388354999999,Kerry,,Ireland,Public Sculpture
Bronze Statue of John Egan,,,-9.89887609999999,51.8377533,Kerry,,Ireland,"Gaa,Public Sculpture"
The Way the Fairies Went,,,-9.9002382,51.8373175,Kerry,,Ireland,"Gardens,Garden,Public Sculpture"
"Church Island, Lough Currane",,,-10.129444,51.835,Kerry,,Ireland,"Church Abbey,Monastery,Churches,Abbeys and Monastery,Island,Offshore Island,Ruins,Historic Houses and Castle"
The Diaspora Lady,,,-9.7897011,52.1066299999999,Kerry,Killorglin,Ireland,Public Sculpture
Ballykissane Monument,,,-9.7854727,52.1255557,Kerry,,Republic of Ireland,Public Sculpture
Pikeman Statue,,,-9.7051622,52.269098,Kerry,Tralee,Republic of Ireland,Public Sculpture
Willie Clancy Statue,,,-9.4007763,52.8562013,Clare,,Ireland,Public Sculpture
Mohammed Ali Monument,,,-8.9850989,52.8379988,Clare,Ennis,Ireland,Public Sculpture
The O'Connell Monument,,,-8.63174589999999,52.6589358999999,Limerick,Limerick City,Republic of Ireland,Public Sculpture
Tait's Clock,,,-8.6273501,52.6599472,Limerick,,Ireland,"Historic Houses and Castle,Public Sculpture"
Charlie Haughey Memorial,,,-10.2751531,52.1387839,Kerry,Dingle,Ireland,Public Sculpture
Writers Wall,,,-10.2786912,52.1443777,Kerry,Dingle,Republic of Ireland,Public Sculpture
Eamon Kelly Memorial Statue,,,-9.2719471,52.1166851,Kerry,,Ireland,Public Sculpture
"The Old Bridge, Trim",,,-6.7910032,53.556326,Meath,Trim,Ireland,Historic Houses and Castle
Wellington Memorial,http://www.trimtown.ie/places-of-interest-in-trim-town-co-meath/wellington-memorial/,,-6.79374239999999,53.5521983999999,Meath,Trim,Ireland,"Historic Houses and Castle,Public Sculpture"
Rose of Tralee Statue,,,-9.7043707,52.2671298,Kerry,Tralee,Ireland,"Public Park,Nature and Wildlife,Public Sculpture"
Ballinamuck Visitor Centre,https://www.facebook.com/1798-Visitor-Centre-Ballinamuck-648915221856896/,353879613312,-7.7170386,53.8653036,Longford,Ballinamuck,Ireland,"Historic Houses and Castle,Museums and Attraction"
Lismore Library,http://waterfordlibraries.ie/branches/,353761102377,-7.9348626,52.1366658,Waterford,Lismore,Ireland,"Learning,Literary Ireland"
Michael Collins Monument,,,-8.8564753,51.8135505,Cork,,Ireland,Public Sculpture
Father Mathew Statue,,,-8.47032939999999,51.8999630999999,Cork,,Ireland,Public Sculpture
Ross Castle,https://heritageireland.ie/visit/places-to-visit/ross-castle/,353646635851,-9.53143809999999,52.0412494,Kerry,Killarney,Ireland,"Cruising,Cycling,Fishing,Angling,Photography,Learning,Walking,Historic Houses and Castle,Castle,National Park,National and Forest Park,Natural Landscape,Boat,Tour"
Knights and Conquests Exhibition Centre,https://www.knightsandconquests.ie,353867006715,-7.4969922,53.7751899,Longford,Granard,Ireland,"Activity Operator,Museums and Attraction,Tour"
The People's Museum of Limerick,http://peoplesmuseum.ie,353871095906,-8.6299147,52.6582447,Limerick,Limerick City,Republic of Ireland,Museums and Attraction
Clare Heritage & Genealogy Centre,http://www.clareroots.com,353656837955,-9.0627719,52.9449817,Clare,Corofin,Ireland,"Learning,Activity Operator,Tracing Your Ancestors,Museums and Attraction"
The Irish Workhouse Centre,http://www.irishworkhousecentre.ie,353909759200,-8.22380101827695,53.0988276375127,Galway,Portumna,Republic of Ireland,"Museums and Attraction,Food Shops,Shopping,Tour"
Dan O’Hara’s Homestead  - Connemara Heritage & History Centre,https://www.connemaraheritage.net/,3539521246,-9.9117698,53.4792441,Galway,Clifden,Ireland,"Restaurant,Learning,Museums and Attraction,Food and Drink"
Carlow County Museum,https://carlowmuseum.ie,353599131554,-6.92801979999999,52.8362239999999,Carlow,,Ireland,"Learning,Museums and Attraction"
Michael Collins House,http://michaelcollinshouse.ie,353238858676,-8.8914,51.6217,Cork,Clonakilty,Ireland,"Museums and Attraction,Food Shops,Shopping,Tour"
Waterford Treasures Museums in the Viking Triangle,https://www.waterfordtreasures.com/,353761102501,-7.1076919,52.2595408,Waterford,,Ireland,"Museums and Attraction,Tour,Walking"
Francis Ledwidge Museum,http://www.francisledwidge.com,353419824544,-6.5274991,53.7071243,Meath,Slane,Ireland,"Learning,Historic Houses and Castle,Museums and Attraction,Tour"
Enniscorthy Castle,http://www.enniscorthycastle.ie,353539234699,-6.56722349999999,52.5014239,Wexford,Enniscorthy,Ireland,"Historic Houses and Castle,Castle,Tour"
Lismore Castle Art Gallery,http://www.lismorecastlearts.ie,3535854061,-7.9347132,52.1405878,Waterford,Lismore,Ireland,"Craft,Shopping,Art Gallery"
The National 1798 Rebellion Centre,http://www.1798centre.ie/,353539237596,-6.5693797,52.4967188,Wexford,Enniscorthy,Ireland,"Museums and Attraction,Tour"
Ardfert Cathedral,https://heritageireland.ie/visit/places-to-visit/ardfert-cathedral/,353667134711,-9.78162969999999,52.3285242999999,Kerry,Ardfert,Ireland,"Historic Houses and Castle,Church Abbey,Monastery,Churches,Abbeys and Monastery,Ruins"
Cork Butter Museum,http://thebuttermuseum.com/,353214300600,-8.476735,51.9027649999999,Cork,,Ireland,"Learning,Historic Houses and Castle,Museums and Attraction"
Aughnanure Castle,https://heritageireland.ie/visit/places-to-visit/aughnanure-castle/,35391552214,-9.2757515,53.4187829,Galway,Oughterard,Ireland,"Castle,Historic Houses and Castle,Tour"
Lifford Old Courthouse,https://liffordoldcourthouse.com/,353749141733,-7.4786262,54.8332160999999,Donegal,Lifford,Ireland,"Museums and Attraction,Food and Drink,Restaurant,Tour"
Sam Maguire Visitor Experience,http://fanlobbus.ie/Sam-Maguire.htm,353872390849,-9.11039919999999,51.7221878999999,Cork,Dunmanway,Ireland,"Gaa,Learning,Activity Operator,Museums and Attraction"
Holycross Abbey,http://www.holycrossabbey.ie,35350443124,-7.8681021,52.6395472,Tipperary,Holycross,Ireland,"Church Abbey,Monastery,Churches,Abbeys and Monastery,Food Shops,Shopping,Tour"
Michael Davitt Museum,http://www.michaeldavittmuseum.ie,353949031942,-9.1307741,53.921068,Mayo,,Ireland,"Tracing Your Ancestors,Church Abbey,Monastery,Churches,Abbeys and Monastery,Museums and Attraction,Ruins,Historic Houses and Castle,Activity Operator"
Dingle Whiskey Distillery,http://dingledistillery.ie,353664029011,-10.2892974,52.1418288,Kerry,,Ireland,"Food and Drink,Restaurant,Learning,Museums and Attraction,Food Trails and Tour,Tour"
Dunbrody Famine Ship Experience and Restaurant,https://www.dunbrody.com,35351425239,-6.9478547,52.3938096,Wexford,New Ross,Ireland,"Restaurant,Museums and Attraction,Food and Drink,Tour"
The Kennedy Homestead,http://www.kennedyhomestead.ie,35351388264,-6.9808663,52.3463063999999,Wexford,Dunganstown,Ireland,"Photography,Learning,Museums and Attraction,Tour"
Michael Collins Centre,http://www.michaelcollinscentre.com,353238846107,-8.82139099999999,51.6431607,Cork,Clonakilty,Ireland,"Learning,Museums and Attraction,Tour"
"The Quiet Man Museum, Tours & Giftshop",http://www.quietmanmuseum.com,353949546089,-9.28811549999999,53.5408714,Mayo,Cong,Ireland,"Transport,Movies,Cinema,Venue,Activity Operator,Museums and Attraction,Tour,Coach,Road"
St Brigid's Well & Shrine,,,-7.352575,53.5495302,Westmeath,,Ireland,Public Sculpture
Skibbereen Heritage Centre,https://skibbheritage.com/,3532840900,-9.271913,51.5508649999999,Cork,Skibbereen,Ireland,"Tracing Your Ancestors,Museums and Attraction"
